CCSDS_OMM_VERS = 2.0
CREATION_DATE  = 
ORIGINATOR     = 

OBJECT_NAME    = UNKNOWN
OBJECT_ID      = 
CENTER_NAME    = EARTH
REF_FRAME      = TEME
TIME_SYSTEM    = UTC
MEAN_ELEMENT_THEORY = SGP/SGP4

EPOCH          = 2025-12-01T23:06:21.568896
MEAN_MOTION    = 14.62267239
ECCENTRICITY   = .0016202
INCLINATION    = 74.0494
RA_OF_ASC_NODE = 58.8278
ARG_OF_PERICENTER = 324.8934
MEAN_ANOMALY   = 35.1164

EPHEMERIS_TYPE = 0
CLASSIFICATION_TYPE = U
NORAD_CAT_ID   = 85015
ELEMENT_SET_NO = 999
REV_AT_EPOCH   = 64103
BSTAR          = .14104E-3
MEAN_MOTION_DOT = .682E-5
MEAN_MOTION_DDOT = 0

CCSDS_OMM_VERS = 2.0
CREATION_DATE  = 
ORIGINATOR     = 

OBJECT_NAME    = UNKNOWN
OBJECT_ID      = 
CENTER_NAME    = EARTH
REF_FRAME      = TEME
TIME_SYSTEM    = UTC
MEAN_ELEMENT_THEORY = SGP/SGP4

EPOCH          = 2025-12-03T07:13:26.129568
MEAN_MOTION    = 14.73483669
ECCENTRICITY   = .0002537
INCLINATION    = 99.8499
RA_OF_ASC_NODE = 350.7912
ARG_OF_PERICENTER = 3.9623
MEAN_ANOMALY   = 8.0343

EPHEMERIS_TYPE = 0
CLASSIFICATION_TYPE = U
NORAD_CAT_ID   = 85023
ELEMENT_SET_NO = 999
REV_AT_EPOCH   = 62744
BSTAR          = .54314E-2
MEAN_MOTION_DOT = .35396E-3
MEAN_MOTION_DDOT = 0

CCSDS_OMM_VERS = 2.0
CREATION_DATE  = 
ORIGINATOR     = 

OBJECT_NAME    = UNKNOWN
OBJECT_ID      = 
CENTER_NAME    = EARTH
REF_FRAME      = TEME
TIME_SYSTEM    = UTC
MEAN_ELEMENT_THEORY = SGP/SGP4

EPOCH          = 2025-12-02T19:52:09.769440
MEAN_MOTION    = 13.74236087
ECCENTRICITY   = .0178453
INCLINATION    = 66.0397
RA_OF_ASC_NODE = 125.7800
ARG_OF_PERICENTER = 195.8355
MEAN_ANOMALY   = 163.7087

EPHEMERIS_TYPE = 0
CLASSIFICATION_TYPE = U
NORAD_CAT_ID   = 85027
ELEMENT_SET_NO = 999
REV_AT_EPOCH   = 60325
BSTAR          = .35576E-3
MEAN_MOTION_DOT = .297E-5
MEAN_MOTION_DDOT = 0

CCSDS_OMM_VERS = 2.0
CREATION_DATE  = 
ORIGINATOR     = 

OBJECT_NAME    = UNKNOWN
OBJECT_ID      = 
CENTER_NAME    = EARTH
REF_FRAME      = TEME
TIME_SYSTEM    = UTC
MEAN_ELEMENT_THEORY = SGP/SGP4

EPOCH          = 2025-12-03T02:39:12.457440
MEAN_MOTION    = 13.43716701
ECCENTRICITY   = .0150879
INCLINATION    = 102.2110
RA_OF_ASC_NODE = 300.5306
ARG_OF_PERICENTER = 25.0094
MEAN_ANOMALY   = 335.8242

EPHEMERIS_TYPE = 0
CLASSIFICATION_TYPE = U
NORAD_CAT_ID   = 85047
ELEMENT_SET_NO = 999
REV_AT_EPOCH   = 57536
BSTAR          = .3364E-1
MEAN_MOTION_DOT = .20753E-3
MEAN_MOTION_DDOT = 0

CCSDS_OMM_VERS = 2.0
CREATION_DATE  = 
ORIGINATOR     = 

OBJECT_NAME    = UNKNOWN
OBJECT_ID      = 
CENTER_NAME    = EARTH
REF_FRAME      = TEME
TIME_SYSTEM    = UTC
MEAN_ELEMENT_THEORY = SGP/SGP4

EPOCH          = 2025-12-03T10:24:39.596832
MEAN_MOTION    = 12.76918661
ECCENTRICITY   = .0263085
INCLINATION    = 102.3973
RA_OF_ASC_NODE = 320.3963
ARG_OF_PERICENTER = 212.6290
MEAN_ANOMALY   = 304.0405

EPHEMERIS_TYPE = 0
CLASSIFICATION_TYPE = U
NORAD_CAT_ID   = 85061
ELEMENT_SET_NO = 999
REV_AT_EPOCH   = 55459
BSTAR          = .15074E-1
MEAN_MOTION_DOT = .3745E-4
MEAN_MOTION_DDOT = 0

CCSDS_OMM_VERS = 2.0
CREATION_DATE  = 
ORIGINATOR     = 

OBJECT_NAME    = UNKNOWN
OBJECT_ID      = 
CENTER_NAME    = EARTH
REF_FRAME      = TEME
TIME_SYSTEM    = UTC
MEAN_ELEMENT_THEORY = SGP/SGP4

EPOCH          = 2025-12-03T12:13:21.866304
MEAN_MOTION    = 14.40697632
ECCENTRICITY   = .0011373
INCLINATION    = 74.0455
RA_OF_ASC_NODE = 239.8484
ARG_OF_PERICENTER = 113.3855
MEAN_ANOMALY   = 64.2553

EPHEMERIS_TYPE = 0
CLASSIFICATION_TYPE = U
NORAD_CAT_ID   = 85100
ELEMENT_SET_NO = 999
REV_AT_EPOCH   = 63201
BSTAR          = .18171E-3
MEAN_MOTION_DOT = .555E-5
MEAN_MOTION_DDOT = 0

CCSDS_OMM_VERS = 2.0
CREATION_DATE  = 
ORIGINATOR     = 

OBJECT_NAME    = UNKNOWN
OBJECT_ID      = 
CENTER_NAME    = EARTH
REF_FRAME      = TEME
TIME_SYSTEM    = UTC
MEAN_ELEMENT_THEORY = SGP/SGP4

EPOCH          = 2025-12-01T13:04:26.082048
MEAN_MOTION    = 13.72875502
ECCENTRICITY   = .0009636
INCLINATION    = 100.0566
RA_OF_ASC_NODE = 75.8543
ARG_OF_PERICENTER = 44.6235
MEAN_ANOMALY   = 340.0315

EPHEMERIS_TYPE = 0
CLASSIFICATION_TYPE = U
NORAD_CAT_ID   = 85106
ELEMENT_SET_NO = 999
REV_AT_EPOCH   = 60153
BSTAR          = .7439E-3
MEAN_MOTION_DOT = .637E-5
MEAN_MOTION_DDOT = 0

CCSDS_OMM_VERS = 2.0
CREATION_DATE  = 
ORIGINATOR     = 

OBJECT_NAME    = UNKNOWN
OBJECT_ID      = 
CENTER_NAME    = EARTH
REF_FRAME      = TEME
TIME_SYSTEM    = UTC
MEAN_ELEMENT_THEORY = SGP/SGP4

EPOCH          = 2025-12-02T08:19:14.000448
MEAN_MOTION    = 14.77828784
ECCENTRICITY   = .000675
INCLINATION    = 98.4036
RA_OF_ASC_NODE = 199.9347
ARG_OF_PERICENTER = 167.4027
MEAN_ANOMALY   = 192.7352

EPHEMERIS_TYPE = 0
CLASSIFICATION_TYPE = U
NORAD_CAT_ID   = 85151
ELEMENT_SET_NO = 999
REV_AT_EPOCH   = 47799
BSTAR          = .37328E-2
MEAN_MOTION_DOT = .26879E-3
MEAN_MOTION_DDOT = 0

CCSDS_OMM_VERS = 2.0
CREATION_DATE  = 
ORIGINATOR     = 

OBJECT_NAME    = UNKNOWN
OBJECT_ID      = 
CENTER_NAME    = EARTH
REF_FRAME      = TEME
TIME_SYSTEM    = UTC
MEAN_ELEMENT_THEORY = SGP/SGP4

EPOCH          = 2025-12-03T15:52:56.960832
MEAN_MOTION    = 13.71510249
ECCENTRICITY   = .0216429
INCLINATION    = 99.8556
RA_OF_ASC_NODE = 118.4016
ARG_OF_PERICENTER = 337.5044
MEAN_ANOMALY   = 34.4440

EPHEMERIS_TYPE = 0
CLASSIFICATION_TYPE = U
NORAD_CAT_ID   = 85210
ELEMENT_SET_NO = 999
REV_AT_EPOCH   = 60091
BSTAR          = .10155E-2
MEAN_MOTION_DOT = .1032E-4
MEAN_MOTION_DDOT = 0

CCSDS_OMM_VERS = 2.0
CREATION_DATE  = 
ORIGINATOR     = 

OBJECT_NAME    = UNKNOWN
OBJECT_ID      = 
CENTER_NAME    = EARTH
REF_FRAME      = TEME
TIME_SYSTEM    = UTC
MEAN_ELEMENT_THEORY = SGP/SGP4

EPOCH          = 2025-12-03T01:06:45.747648
MEAN_MOTION    = 14.37076077
ECCENTRICITY   = .0209186
INCLINATION    = 98.0319
RA_OF_ASC_NODE = 72.0790
ARG_OF_PERICENTER = 157.5099
MEAN_ANOMALY   = 203.5426

EPHEMERIS_TYPE = 0
CLASSIFICATION_TYPE = U
NORAD_CAT_ID   = 85217
ELEMENT_SET_NO = 999
REV_AT_EPOCH   = 62646
BSTAR          = .15862E-2
MEAN_MOTION_DOT = .6019E-4
MEAN_MOTION_DDOT = 0

CCSDS_OMM_VERS = 2.0
CREATION_DATE  = 
ORIGINATOR     = 

OBJECT_NAME    = UNKNOWN
OBJECT_ID      = 
CENTER_NAME    = EARTH
REF_FRAME      = TEME
TIME_SYSTEM    = UTC
MEAN_ELEMENT_THEORY = SGP/SGP4

EPOCH          = 2025-12-03T03:15:22.649184
MEAN_MOTION    = 14.00711508
ECCENTRICITY   = .0512357
INCLINATION    = 65.5353
RA_OF_ASC_NODE = 240.1163
ARG_OF_PERICENTER = 32.0566
MEAN_ANOMALY   = 331.0605

EPHEMERIS_TYPE = 0
CLASSIFICATION_TYPE = U
NORAD_CAT_ID   = 85237
ELEMENT_SET_NO = 999
REV_AT_EPOCH   = 60700
BSTAR          = .26354E-2
MEAN_MOTION_DOT = .12532E-3
MEAN_MOTION_DDOT = 0

CCSDS_OMM_VERS = 2.0
CREATION_DATE  = 
ORIGINATOR     = 

OBJECT_NAME    = UNKNOWN
OBJECT_ID      = 
CENTER_NAME    = EARTH
REF_FRAME      = TEME
TIME_SYSTEM    = UTC
MEAN_ELEMENT_THEORY = SGP/SGP4

EPOCH          = 2025-11-29T14:17:21.912864
MEAN_MOTION    = 13.88338822
ECCENTRICITY   = .0062493
INCLINATION    = 99.0603
RA_OF_ASC_NODE = 263.1535
ARG_OF_PERICENTER = 235.8670
MEAN_ANOMALY   = 302.6802

EPHEMERIS_TYPE = 0
CLASSIFICATION_TYPE = U
NORAD_CAT_ID   = 85238
ELEMENT_SET_NO = 999
REV_AT_EPOCH   = 60901
BSTAR          = .74162E-4
MEAN_MOTION_DOT = .47E-6
MEAN_MOTION_DDOT = 0

