UNKNOWN                 
1 85015U          25335.96274964  .00000682  00000+0  14104-3 0  9992
2 85015  74.0494  58.8278 0016202 324.8934  35.1164 14.62267239641037
UNKNOWN                 
1 85023U          25337.30099687  .00035396  00000+0  54314-2 0  9994
2 85023  99.8499 350.7912 0002537   3.9623   8.0343 14.73483669627447
UNKNOWN                 
1 85027U          25336.82789085  .00000297  00000+0  35576-3 0  9994
2 85027  66.0397 125.7800 0178453 195.8355 163.7087 13.74236087603251
UNKNOWN                 
1 85047U          25337.11056085  .00020753  00000+0  33640-1 0  9993
2 85047 102.2110 300.5306 0150879  25.0094 335.8242 13.43716701575366
UNKNOWN                 
1 85061U          25337.43379163  .00003745  00000+0  15074-1 0  9992
2 85061 102.3973 320.3963 0263085 212.6290 304.0405 12.76918661554590
UNKNOWN                 
1 85100U          25337.50928086  .00000555  00000+0  18171-3 0  9997
2 85100  74.0455 239.8484 0011373 113.3855  64.2553 14.40697632632019
UNKNOWN                 
1 85106U          25335.54474632  .00000637  00000+0  74390-3 0  9994
2 85106 100.0566  75.8543 0009636  44.6235 340.0315 13.72875502601531
UNKNOWN                 
1 85151U          25336.34668982  .00026879  00000+0  37328-2 0  9991
2 85151  98.4036 199.9347 0006750 167.4027 192.7352 14.77828784477990
UNKNOWN                 
1 85210U          25337.66177038  .00001032  00000+0  10155-2 0  9993
2 85210  99.8556 118.4016 0216429 337.5044  34.4440 13.71510249600919
UNKNOWN                 
1 85217U          25337.04636282  .00006019  00000+0  15862-2 0  9993
2 85217  98.0319  72.0790 0209186 157.5099 203.5426 14.37076077626460
UNKNOWN                 
1 85237U          25337.13567881  .00012532  00000+0  26354-2 0  9998
2 85237  65.5353 240.1163 0512357  32.0566 331.0605 14.00711508607004
UNKNOWN                 
1 85238U          25333.59539251  .00000047  00000+0  74162-4 0  9995
2 85238  99.0603 263.1535 0062493 235.8670 302.6802 13.88338822609018
